KUIPER-00175            
1 67135U 25301C   26062.16668981  .00007836  00000+0  27206-3 0  9997
2 67135  51.8754  96.3154 0002156  29.3024 200.7298 15.30696596  5627
KUIPER-00179            
1 67136U 25301D   26062.16668981 -.00661062  00000+0 -33995-1 0  9997
2 67136  51.8814  97.1904 0002338  45.9789 120.1791 15.18237129  5892
KUIPER-00181            
1 67137U 25301E   26062.16668981 -.00027350  00000+0 -38201-2 0  9990
2 67137  51.9010 105.7871 0002903  92.3868 347.3217 14.77112909  5004
KUIPER-00183            
1 67138U 25301F   26062.16668981 -.01434429  00000+0 -49397-1 0  9998
2 67138  51.8646  97.3324 0014665  27.8413  10.3168 15.32513948  5748
KUIPER-00184            
1 67139U 25301G   26061.36036967  .00041729  00000+0  11356-2 0  9992
2 67139  51.8629 101.0458 0012649  23.7355 336.4213 15.37031755 12883
KUIPER-00186            
1 67140U 25301H   26062.16668981 -.00004166  00000+0 -51813-3 0  9999
2 67140  51.9005 106.9564 0000941  84.4463 296.9761 14.79907222  5743
KUIPER-00187            
1 67141U 25301J   26062.15993515  .00004211  00000+0  58062-3 0  9995
2 67141  51.9021 109.4972 0000747  90.5270 269.5778 14.79967368 12559
KUIPER-00188            
1 67142U 25301K   26062.11397527  .00045778  00000+0  12159-2 0  9992
2 67142  51.8686  97.1479 0010116  21.0060 339.1341 15.37769728 12722
KUIPER-00191            
1 67143U 25301L   26062.16668981 -.00026840  00000+0 -31014-2 0  9995
2 67143  51.8988 102.1502 0009545  44.1902  47.6362 14.84965484  4562
KUIPER-00196            
1 67144U 25301M   26061.35646484  .00019816  00000+0  52260-3 0  9990
2 67144  51.8704 100.3484 0003758 356.2395   3.8563 15.38479442 12617
KUIPER-00204            
1 67145U 25301N   26062.11056808  .00020223  00000+0  78845-3 0  9992
2 67145  51.8840 101.5161 0002724 326.5399  33.5411 15.25923041 12774
KUIPER-00210            
1 67146U 25301P   26062.16668981 -.00019830  00000+0 -21442-2 0  9993
2 67146  51.8973 102.1665 0010661  48.6888 189.7884 14.87486556  5796
KUIPER-00221            
1 67147U 25301Q   26062.12618776  .00010553  00000+0  14104-2 0  9995
2 67147  51.9013 109.6296 0000542  89.4903 270.6122 14.79952785 12553
KUIPER-00232            
1 67148U 25301R   26062.16668981 -.01073891  00000+0 -54373-1 0  9991
2 67148  51.8822  97.0517 0003251 131.7899  51.2093 15.19624649  4957
KUIPER-00241            
1 67149U 25301S   26062.16668981 -.00029022  00000+0 -37500-2 0  9992
2 67149  51.9018 104.4595 0000982 105.4347  80.5051 14.80424867  5361
KUIPER-00245            
1 67150U 25301T   26062.12344059  .00004595  00000+0  63094-3 0  9991
2 67150  51.9017 112.1624 0000436  57.8744 302.2261 14.79963414 12512
KUIPER-00246            
1 67151U 25301U   26062.16668981 -.01091184  00000+0 -73380-1 0  9999
2 67151  51.8948  98.3117 0004640  49.1852 290.1122 15.09183767  5682
