[{"OBJECT_NAME":"KUIPER-00175","OBJECT_ID":"2025-301C","EPOCH":"2026-03-03T04:00:01.999584","MEAN_MOTION":15.30696596,"ECCENTRICITY":0.0002156,"INCLINATION":51.8754,"RA_OF_ASC_NODE":96.3154,"ARG_OF_PERICENTER":29.3024,"MEAN_ANOMALY":200.7298,"EPHEMERIS_TYPE":0,"CLASSIFICATION_TYPE":"U","NORAD_CAT_ID":67135,"ELEMENT_SET_NO":999,"REV_AT_EPOCH":562,"BSTAR":0.00027206,"MEAN_MOTION_DOT":7.836e-5,"MEAN_MOTION_DDOT":0},{"OBJECT_NAME":"KUIPER-00179","OBJECT_ID":"2025-301D","EPOCH":"2026-03-03T04:00:01.999584","MEAN_MOTION":15.18237129,"ECCENTRICITY":0.0002338,"INCLINATION":51.8814,"RA_OF_ASC_NODE":97.1904,"ARG_OF_PERICENTER":45.9789,"MEAN_ANOMALY":120.1791,"EPHEMERIS_TYPE":0,"CLASSIFICATION_TYPE":"U","NORAD_CAT_ID":67136,"ELEMENT_SET_NO":999,"REV_AT_EPOCH":589,"BSTAR":-0.033995,"MEAN_MOTION_DOT":-0.00661062,"MEAN_MOTION_DDOT":0},{"OBJECT_NAME":"KUIPER-00181","OBJECT_ID":"2025-301E","EPOCH":"2026-03-03T04:00:01.999584","MEAN_MOTION":14.77112909,"ECCENTRICITY":0.0002903,"INCLINATION":51.901,"RA_OF_ASC_NODE":105.7871,"ARG_OF_PERICENTER":92.3868,"MEAN_ANOMALY":347.3217,"EPHEMERIS_TYPE":0,"CLASSIFICATION_TYPE":"U","NORAD_CAT_ID":67137,"ELEMENT_SET_NO":999,"REV_AT_EPOCH":500,"BSTAR":-0.0038201,"MEAN_MOTION_DOT":-0.0002735,"MEAN_MOTION_DDOT":0},{"OBJECT_NAME":"KUIPER-00183","OBJECT_ID":"2025-301F","EPOCH":"2026-03-03T04:00:01.999584","MEAN_MOTION":15.32513948,"ECCENTRICITY":0.0014665,"INCLINATION":51.8646,"RA_OF_ASC_NODE":97.3324,"ARG_OF_PERICENTER":27.8413,"MEAN_ANOMALY":10.3168,"EPHEMERIS_TYPE":0,"CLASSIFICATION_TYPE":"U","NORAD_CAT_ID":67138,"ELEMENT_SET_NO":999,"REV_AT_EPOCH":574,"BSTAR":-0.049397,"MEAN_MOTION_DOT":-0.01434429,"MEAN_MOTION_DDOT":0},{"OBJECT_NAME":"KUIPER-00184","OBJECT_ID":"2025-301G","EPOCH":"2026-03-02T08:38:55.939488","MEAN_MOTION":15.37031755,"ECCENTRICITY":0.00126491,"INCLINATION":51.8629,"RA_OF_ASC_NODE":101.0458,"ARG_OF_PERICENTER":23.7355,"MEAN_ANOMALY":336.4213,"EPHEMERIS_TYPE":0,"CLASSIFICATION_TYPE":"U","NORAD_CAT_ID":67139,"ELEMENT_SET_NO":999,"REV_AT_EPOCH":1288,"BSTAR":0.0011356184,"MEAN_MOTION_DOT":0.00041729,"MEAN_MOTION_DDOT":0},{"OBJECT_NAME":"KUIPER-00186","OBJECT_ID":"2025-301H","EPOCH":"2026-03-03T04:00:01.999584","MEAN_MOTION":14.79907222,"ECCENTRICITY":9.41e-5,"INCLINATION":51.9005,"RA_OF_ASC_NODE":106.9564,"ARG_OF_PERICENTER":84.4463,"MEAN_ANOMALY":296.9761,"EPHEMERIS_TYPE":0,"CLASSIFICATION_TYPE":"U","NORAD_CAT_ID":67140,"ELEMENT_SET_NO":999,"REV_AT_EPOCH":574,"BSTAR":-0.00051813,"MEAN_MOTION_DOT":-4.166e-5,"MEAN_MOTION_DDOT":0},{"OBJECT_NAME":"KUIPER-00187","OBJECT_ID":"2025-301J","EPOCH":"2026-03-03T03:50:18.396960","MEAN_MOTION":14.79967368,"ECCENTRICITY":7.47e-5,"INCLINATION":51.9021,"RA_OF_ASC_NODE":109.4972,"ARG_OF_PERICENTER":90.527,"MEAN_ANOMALY":269.5778,"EPHEMERIS_TYPE":0,"CLASSIFICATION_TYPE":"U","NORAD_CAT_ID":67141,"ELEMENT_SET_NO":999,"REV_AT_EPOCH":1255,"BSTAR":0.00058062,"MEAN_MOTION_DOT":4.211e-5,"MEAN_MOTION_DDOT":0},{"OBJECT_NAME":"KUIPER-00188","OBJECT_ID":"2025-301K","EPOCH":"2026-03-03T02:44:07.463328","MEAN_MOTION":15.37769728,"ECCENTRICITY":0.0010116,"INCLINATION":51.8686,"RA_OF_ASC_NODE":97.1479,"ARG_OF_PERICENTER":21.006,"MEAN_ANOMALY":339.1341,"EPHEMERIS_TYPE":0,"CLASSIFICATION_TYPE":"U","NORAD_CAT_ID":67142,"ELEMENT_SET_NO":999,"REV_AT_EPOCH":1272,"BSTAR":0.0012159,"MEAN_MOTION_DOT":0.00045778,"MEAN_MOTION_DDOT":0},{"OBJECT_NAME":"KUIPER-00191","OBJECT_ID":"2025-301L","EPOCH":"2026-03-03T04:00:01.999584","MEAN_MOTION":14.84965484,"ECCENTRICITY":0.0009545,"INCLINATION":51.8988,"RA_OF_ASC_NODE":102.1502,"ARG_OF_PERICENTER":44.1902,"MEAN_ANOMALY":47.6362,"EPHEMERIS_TYPE":0,"CLASSIFICATION_TYPE":"U","NORAD_CAT_ID":67143,"ELEMENT_SET_NO":999,"REV_AT_EPOCH":456,"BSTAR":-0.0031014,"MEAN_MOTION_DOT":-0.0002684,"MEAN_MOTION_DDOT":0},{"OBJECT_NAME":"KUIPER-00196","OBJECT_ID":"2025-301M","EPOCH":"2026-03-02T08:33:18.562176","MEAN_MOTION":15.38479442,"ECCENTRICITY":0.0003758,"INCLINATION":51.8704,"RA_OF_ASC_NODE":100.3484,"ARG_OF_PERICENTER":356.2395,"MEAN_ANOMALY":3.8563,"EPHEMERIS_TYPE":0,"CLASSIFICATION_TYPE":"U","NORAD_CAT_ID":67144,"ELEMENT_SET_NO":999,"REV_AT_EPOCH":1261,"BSTAR":0.00052260431,"MEAN_MOTION_DOT":0.00019816,"MEAN_MOTION_DDOT":0},{"OBJECT_NAME":"KUIPER-00204","OBJECT_ID":"2025-301N","EPOCH":"2026-03-03T02:39:13.082112","MEAN_MOTION":15.25923041,"ECCENTRICITY":0.0002724,"INCLINATION":51.884,"RA_OF_ASC_NODE":101.5161,"ARG_OF_PERICENTER":326.5399,"MEAN_ANOMALY":33.5411,"EPHEMERIS_TYPE":0,"CLASSIFICATION_TYPE":"U","NORAD_CAT_ID":67145,"ELEMENT_SET_NO":999,"REV_AT_EPOCH":1277,"BSTAR":0.00078845,"MEAN_MOTION_DOT":0.00020223,"MEAN_MOTION_DDOT":0},{"OBJECT_NAME":"KUIPER-00210","OBJECT_ID":"2025-301P","EPOCH":"2026-03-03T04:00:01.999584","MEAN_MOTION":14.87486556,"ECCENTRICITY":0.0010661,"INCLINATION":51.8973,"RA_OF_ASC_NODE":102.1665,"ARG_OF_PERICENTER":48.6888,"MEAN_ANOMALY":189.7884,"EPHEMERIS_TYPE":0,"CLASSIFICATION_TYPE":"U","NORAD_CAT_ID":67146,"ELEMENT_SET_NO":999,"REV_AT_EPOCH":579,"BSTAR":-0.0021442,"MEAN_MOTION_DOT":-0.0001983,"MEAN_MOTION_DDOT":0},{"OBJECT_NAME":"KUIPER-00221","OBJECT_ID":"2025-301Q","EPOCH":"2026-03-03T03:01:42.622464","MEAN_MOTION":14.79952785,"ECCENTRICITY":5.42e-5,"INCLINATION":51.9013,"RA_OF_ASC_NODE":109.6296,"ARG_OF_PERICENTER":89.4903,"MEAN_ANOMALY":270.6122,"EPHEMERIS_TYPE":0,"CLASSIFICATION_TYPE":"U","NORAD_CAT_ID":67147,"ELEMENT_SET_NO":999,"REV_AT_EPOCH":1255,"BSTAR":0.0014104,"MEAN_MOTION_DOT":0.00010553,"MEAN_MOTION_DDOT":0},{"OBJECT_NAME":"KUIPER-00232","OBJECT_ID":"2025-301R","EPOCH":"2026-03-03T04:00:01.999584","MEAN_MOTION":15.19624649,"ECCENTRICITY":0.0003251,"INCLINATION":51.8822,"RA_OF_ASC_NODE":97.0517,"ARG_OF_PERICENTER":131.7899,"MEAN_ANOMALY":51.2093,"EPHEMERIS_TYPE":0,"CLASSIFICATION_TYPE":"U","NORAD_CAT_ID":67148,"ELEMENT_SET_NO":999,"REV_AT_EPOCH":495,"BSTAR":-0.054373,"MEAN_MOTION_DOT":-0.01073891,"MEAN_MOTION_DDOT":0},{"OBJECT_NAME":"KUIPER-00241","OBJECT_ID":"2025-301S","EPOCH":"2026-03-03T04:00:01.999584","MEAN_MOTION":14.80424867,"ECCENTRICITY":9.82e-5,"INCLINATION":51.9018,"RA_OF_ASC_NODE":104.4595,"ARG_OF_PERICENTER":105.4347,"MEAN_ANOMALY":80.5051,"EPHEMERIS_TYPE":0,"CLASSIFICATION_TYPE":"U","NORAD_CAT_ID":67149,"ELEMENT_SET_NO":999,"REV_AT_EPOCH":536,"BSTAR":-0.00375,"MEAN_MOTION_DOT":-0.00029022,"MEAN_MOTION_DDOT":0},{"OBJECT_NAME":"KUIPER-00245","OBJECT_ID":"2025-301T","EPOCH":"2026-03-03T02:57:45.266976","MEAN_MOTION":14.79963414,"ECCENTRICITY":4.36e-5,"INCLINATION":51.9017,"RA_OF_ASC_NODE":112.1624,"ARG_OF_PERICENTER":57.8744,"MEAN_ANOMALY":302.2261,"EPHEMERIS_TYPE":0,"CLASSIFICATION_TYPE":"U","NORAD_CAT_ID":67150,"ELEMENT_SET_NO":999,"REV_AT_EPOCH":1251,"BSTAR":0.00063094,"MEAN_MOTION_DOT":4.595e-5,"MEAN_MOTION_DDOT":0},{"OBJECT_NAME":"KUIPER-00246","OBJECT_ID":"2025-301U","EPOCH":"2026-03-03T04:00:01.999584","MEAN_MOTION":15.09183767,"ECCENTRICITY":0.000464,"INCLINATION":51.8948,"RA_OF_ASC_NODE":98.3117,"ARG_OF_PERICENTER":49.1852,"MEAN_ANOMALY":290.1122,"EPHEMERIS_TYPE":0,"CLASSIFICATION_TYPE":"U","NORAD_CAT_ID":67151,"ELEMENT_SET_NO":999,"REV_AT_EPOCH":568,"BSTAR":-0.07338,"MEAN_MOTION_DOT":-0.01091184,"MEAN_MOTION_DDOT":0}]
